{
  "links": {
    "next": "http://www.neowsapp.com/rest/v1/neo/browse?page=2&size=20&api_key=DEMO_KEY",
    "prev": "http://www.neowsapp.com/rest/v1/neo/browse?page=0&size=20&api_key=DEMO_KEY",
    "self": "http://www.neowsapp.com/rest/v1/neo/browse?page=1&size=20&api_key=DEMO_KEY"
  },
  "near_earth_objects": [
    {
      "absolute_magnitude_h": 24.0,
      "close_approach_data": [
        {
          "close_approach_date": "1995-06-04",
          "close_approach_date_full": "1995-Jun-04 18:30",
          "epoch_date_close_approach": 802290600000,
          "miss_distance": {
            "astronomical": "0.0219564421",
            "kilometers": "3284636.970938327",
            "lunar": "8.5410559769",
            "miles": "2040978.7722978326"
          },
          "orbiting_body": "Earth",
          "relative_velocity": {
            "kilometers_per_hour": "31359.12840592",
            "kilometers_per_second": "8.7108690016",
            "miles_per_hour": "19485.3428697785"
          }
        }
      ],
      "designation": "1995 LA",
      "estimated_diameter": {
        "feet": {
          "estimated_diameter_max": 309.0473542854,
          "estimated_diameter_min": 138.2101784897
        },
        "kilometers": {
          "estimated_diameter_max": 0.0941976306,
          "estimated_diameter_min": 0.0421264611
        },
        "meters": {
          "estimated_diameter_max": 94.1976305719,
          "estimated_diameter_min": 42.1264610556
        },
        "miles": {
          "estimated_diameter_max": 0.0585316759,
          "estimated_diameter_min": 0.0261761612
        }
      },
      "id": "3007950",
      "is_potentially_hazardous_asteroid": false,
      "is_sentry_object": false,
      "links": {
        "self": "http://www.neowsapp.com/rest/v1/neo/3007950?api_key=DEMO_KEY"
      },
      "name": "(1995 LA)",
      "nasa_jpl_url": "http://ssd.jpl.nasa.gov/sbdb.cgi?sstr=3007950",
      "neo_reference_id": "3007950",
      "orbital_data": {
        "aphelion_distance": "3.229858342761283",
        "ascending_node_longitude": "247.6275314969574",
        "data_arc_in_days": 7,
        "eccentricity": ".5216777372147477",
        "epoch_osculation": "2458600.5",
        "equinox": "J2000",
        "first_observation_date": "1995-06-01",
        "inclination": "8.705216767693948",
        "jupiter_tisserand_invariant": "3.529",
        "last_observation_date": "1995-06-08",
        "mean_anomaly": "255.4078406643134",
        "mean_motion": ".3187226232762838",
        "minimum_orbit_intersection": ".0147961",
        "observations_used": 52,
        "orbit_class": {
          "orbit_class_description": "Near-Earth asteroid orbits which cross the Earth’s orbit similar to that of 1862 Apollo",
          "orbit_class_range": "a (semi-major axis) > 1.0 AU; q (perihelion) < 1.017 AU",
          "orbit_class_type": "APO"
        },
        "orbit_determination_date": "2017-04-06 09:18:09",
        "orbit_id": "12",
        "orbit_uncertainty": "7",
        "orbital_period": "1129.508775685293",
        "perihelion_argument": "17.62779128621585",
        "perihelion_distance": "1.015269602230748",
        "perihelion_time": "2458928.660449548701",
        "semi_major_axis": "2.122563972496015"
      }
    },
    {
      "absolute_magnitude_h": 23.2,
      "close_approach_data": [
        {
          "close_approach_date": "1995-07-10",
          "close_approach_date_full": "1995-Jul-10 17:03",
          "epoch_date_close_approach": 805395780000,
          "miss_distance": {
            "astronomical": "0.0703771721",
            "kilometers": "10528275.042783427",
            "lunar": "27.3767199469",
            "miles": "6541966.7565562126"
          },
          "orbiting_body": "Earth",
          "relative_velocity": {
            "kilometers_per_hour": "31076.8354652734",
            "kilometers_per_second": "8.6324542959",
            "miles_per_hour": "19309.9370145195"
          }
        }
      ],
      "designation": "1995 NA",
      "estimated_diameter": {
        "feet": {
          "estimated_diameter_max": 446.7093369279,
          "estimated_diameter_min": 199.7744887109
        },
        "kilometers": {
          "estimated_diameter_max": 0.1361570015,
          "estimated_diameter_min": 0.0608912622
        },
        "meters": {
          "estimated_diameter_max": 136.1570015386,
          "estimated_diameter_min": 60.8912622106
        },
        "miles": {
          "estimated_diameter_max": 0.0846040122,
          "estimated_diameter_min": 0.0378360645
        }
      },
      "id": "3092139",
      "is_potentially_hazardous_asteroid": false,
      "is_sentry_object": false,
      "links": {
        "self": "http://www.neowsapp.com/rest/v1/neo/3092139?api_key=DEMO_KEY"
      },
      "name": "(1995 NA)",
      "nasa_jpl_url": "http://ssd.jpl.nasa.gov/sbdb.cgi?sstr=3092139",
      "neo_reference_id": "3092139",
      "orbital_data": {
        "aphelion_distance": "2.342698240536675",
        "ascending_node_longitude": "276.2101157328225",
        "data_arc_in_days": 1,
        "eccentricity": ".3902395371753264",
        "epoch_osculation": "2449904.5",
        "equinox": "J2000",
        "first_observation_date": "1995-07-05",
        "inclination": "12.78566454037149",
        "jupiter_tisserand_invariant": "4.110",
        "last_observation_date": "1995-07-06",
        "mean_anomaly": "347.9278290317616",
        "mean_motion": ".4505717925215179",
        "minimum_orbit_intersection": ".0508804",
        "observations_used": 8,
        "orbit_class": {
          "orbit_class_description": "Near-Earth asteroid orbits similar to that of 1221 Amor",
          "orbit_class_range": "1.017 AU < q (perihelion) < 1.3 AU",
          "orbit_class_type": "AMO"
        },
        "orbit_determination_date": "2017-04-06 09:18:09",
        "orbit_id": "13",
        "orbit_uncertainty": "9",
        "orbital_period": "798.9847699638399",
        "perihelion_argument": "33.71767762979477",
        "perihelion_distance": "1.027509810511195",
        "perihelion_time": "2449931.293002066728",
        "semi_major_axis": "1.685104025523935"
      }
    },
    {
      "absolute_magnitude_h": 22.7,
      "close_approach_data": [
        {
          "close_approach_date": "1995-09-07",
          "close_approach_date_full": "1995-Sep-07 22:01",
          "epoch_date_close_approach": 810511260000,
          "miss_distance": {
            "astronomical": "0.1159158802",
            "kilometers": "17340768.777095174",
            "lunar": "45.0912773978",
            "miles": "10775054.0721904412"
          },
          "orbiting_body": "Earth",
          "relative_velocity": {
            "kilometers_per_hour": "22520.707294573",
            "kilometers_per_second": "6.2557520263",
            "miles_per_hour": "13993.491707564"
          }
        }
      ],
      "designation": "1995 SC1",
      "estimated_diameter": {
        "feet": {
          "estimated_diameter_max": 562.3737359442,
          "estimated_diameter_min": 251.5011804664
        },
        "kilometers": {
          "estimated_diameter_max": 0.1714115092,
          "estimated_diameter_min": 0.0766575574
        },
        "meters": {
          "estimated_diameter_max": 171.4115092306,
          "estimated_diameter_min": 76.6575573531
        },
        "miles": {
          "estimated_diameter_max": 0.1065101409,
          "estimated_diameter_min": 0.0476327831
        }
      },
      "id": "3092141",
      "is_potentially_hazardous_asteroid": false,
      "is_sentry_object": false,
      "links": {
        "self": "http://www.neowsapp.com/rest/v1/neo/3092141?api_key=DEMO_KEY"
      },
      "name": "(1995 SC1)",
      "nasa_jpl_url": "http://ssd.jpl.nasa.gov/sbdb.cgi?sstr=3092141",
      "neo_reference_id": "3092141",
      "orbital_data": {
        "aphelion_distance": "3.12508478898275",
        "ascending_node_longitude": "357.852020629071",
        "data_arc_in_days": 23,
        "eccentricity": ".4752218102832965",
        "epoch_osculation": "2458600.5",
        "equinox": "J2000",
        "first_observation_date": "1995-09-23",
        "inclination": "6.82726905244074",
        "jupiter_tisserand_invariant": "3.571",
        "last_observation_date": "1995-10-16",
        "mean_anomaly": "238.5003698905369",
        "mean_motion": ".3196666672237215",
        "minimum_orbit_intersection": ".108873",
        "observations_used": 15,
        "orbit_class": {
          "orbit_class_description": "Near-Earth asteroid orbits similar to that of 1221 Amor",
          "orbit_class_range": "1.017 AU < q (perihelion) < 1.3 AU",
          "orbit_class_type": "AMO"
        },
        "orbit_determination_date": "2017-04-06 09:18:09",
        "orbit_id": "16",
        "orbit_uncertainty": "7",
        "orbital_period": "1126.173095013535",
        "perihelion_argument": "341.5536325043475",
        "perihelion_distance": "1.111681190477138",
        "perihelion_time": "2458980.582262453816",
        "semi_major_axis": "2.118382989729944"
      }
    }
  ],
  "page": {
    "number": 1,
    "size": 20,
    "total_elements": 22220,
    "total_pages": 1111
  }
}
